O3B FM5                 
1 39188U 13031A   19204.63356005 -.00000020  00000-0  00000+0 0  9993
2 39188   0.0606   6.7301 0002413 127.2843 226.0045  5.00115911111024
O3B FM4                 
1 39189U 13031B   19204.58040719 -.00000020  00000-0  00000-0 0  9991
2 39189   0.0335 358.8450 0002588 123.0756 238.1035  5.00116700111042
O3B FM2                 
1 39190U 13031C   19204.75145133 -.00000020  00000-0  00000-0 0  9998
2 39190   0.0293 353.1942 0006269  74.8692 292.0021  5.00115792111025
O3B PFM                 
1 39191U 13031D   19203.78001905 -.00000022  00000-0  00000-0 0  9991
2 39191   0.0517   6.6066 0001696  89.5569 263.8543  5.00116025110896
O3B FM3                 
1 40079U 14038A   19204.08635552 -.00000021  00000-0  00000+0 0  9999
2 40079   0.0411   0.9266 0003443 162.4629 196.6205  5.00116011 91986
O3B FM7                 
1 40080U 14038B   19204.43303931 -.00000020  00000-0  00000-0 0  9993
2 40080   0.0390 342.4518 0002135  91.5586 286.0119  5.00115189 91892
O3B FM6                 
1 40081U 14038C   19204.65856273 -.00000020  00000-0  00000-0 0  9990
2 40081   0.0402   1.6347 0002580 120.3481 238.0412  5.00115258 91889
O3B FM8                 
1 40082U 14038D   19204.51199841 -.00000020  00000-0  00000-0 0  9997
2 40082   0.0370   1.9814 0002699 119.1331 238.9108  5.00115247 91987
O3B FM10                
1 40348U 14083A   19205.33820905 -.00000019  00000-0  00000+0 0  9992
2 40348   0.0470   9.2122 0002626 114.2240 236.5881  5.00115324 83991
O3B FM11                
1 40349U 14083B   19204.35230203 -.00000021  00000-0  00000-0 0  9994
2 40349   0.0490   4.2297 0002128 103.1968 252.5956  5.00115987 83944
O3B FM12                
1 40350U 14083C   19204.21971954 -.00000021  00000-0  00000-0 0  9996
2 40350   0.0479   4.4391 0002614 111.2805 244.3061  5.00115656 83949
O3B FM9                 
1 40351U 14083D   19204.60530406 -.00000020  00000-0  00000-0 0  9992
2 40351   0.0498   3.2388 0002549 118.4121 238.3729  5.00115267 83976
O3B FM15                
1 43231U 18024A   19205.67135956 -.00000018  00000-0  00000+0 0  9996
2 43231   0.0463  13.4780 0002620 110.4871 236.0592  5.00115104 25138
O3B FM16                
1 43232U 18024B   19204.72524943 -.00000020  00000-0  00000-0 0  9994
2 43232   0.0466  18.6902 0002607 103.4618 237.8723  5.00115237 25087
O3B FM14                
1 43233U 18024C   19204.56627542 -.00000020  00000-0  00000-0 0  9996
2 43233   0.0460  20.5665 0002597  97.5705 241.8881  5.00116422 25074
O3B FM13                
1 43234U 18024D   19204.77945480 -.00000020  00000-0  00000-0 0  9994
2 43234   0.0454 349.3970 0000637 223.7033 146.8947  5.00116047 25079
O3B FM20                
1 44112U 19020A   19205.39212740 -.00000019  00000-0  00000+0 0  9999
2 44112   0.0463   9.2364 0002285 112.7696 238.0155  5.00117379  5574
O3B FM19                
1 44113U 19020B   19204.70388894 -.00000020  00000-0  00000-0 0  9991
2 44113   0.0447   9.9160 0002754 105.9417 244.1697  5.00119363  5556
O3B FM17                
1 44114U 19020C   19204.69949804 -.00000020  00000-0  00000-0 0  9994
2 44114   0.0457  10.5596 0002587 112.3205 237.1438  5.00116849  5551
O3B FM18                
1 44115U 19020D   19204.44604886 -.00000020  00000-0  00000-0 0  9996
2 44115   0.0467   9.2407 0002756 113.1486 237.6362  5.00116456  5541
